*******************************************************************************
 Revised: Sep 28, 2012             Deimos / (Mars)                          402

 SATELLITE PHYSICAL PROPERTIES:
  Radius (km)             = 7.8 x 6.0 x 5.1 Density (g cm^-3)   =  1.76 +- 0.30
  Mass (10^20 kg )        = 1.80 (10^-5)    Geometric Albedo    =  0.06 
                               (+- 0.15)    V(1,0)              = +12.89

 SATELLITE ORBITAL DATA:
  Semi-major axis, a (km) = 23.4632(10^3)   Orbital period      = 1.263 d
  Eccentricity, e         =  0.00033        Rotational period   = Synchronous
  Inclination, i  (deg)   =  1.791
*******************************************************************************
 
 
*******************************************************************************
Ephemeris / WWW_USER Sat Aug  5 11:31:03 2017 Pasadena, USA      / Horizons    
*******************************************************************************
Target body name: Deimos (402)                    {source: mar097}
Center body name: Solar System Barycenter (0)     {source: DE431mx}
Center-site name: BODY CENTER
*******************************************************************************
Start time      : A.D. 2017-Jul-10 00:00:00.0000 TDB
Stop  time      : A.D. 2020-Aug-13 00:00:00.0000 TDB
Step-size       : 1440 minutes
*******************************************************************************
Center geodetic : 0.00000000,0.00000000,0.0000000 {E-lon(deg),Lat(deg),Alt(km)}
Center cylindric: 0.00000000,0.00000000,0.0000000 {E-lon(deg),Dxy(km),Dz(km)}
Center radii    : (undefined)                                                  
Output units    : KM-S                                                         
Output type     : GEOMETRIC cartesian states
Output format   : 3 (position, velocity, LT, range, range-rate)
Reference frame : ICRF/J2000.0                                                 
Coordinate systm: Ecliptic and Mean Equinox of Reference Epoch                 
*******************************************************************************
            JDTDB,            Calendar Date (TDB),                      X,                      Y,                      Z,                     VX,                     VY,                     VZ,                     LT,                     RG,                     RR,
**************************************************************************************************************************************************************************************************************************************************************************
$$SOE
2458376.500000000, A.D. 2018-Sep-15 00:00:00.0000,  1.875599762187026E+08, -8.549411941397683E+07, -6.430462366716538E+06,  9.973892843557485E+00,  2.464461127106021E+01,  7.893622582100193E-01,  6.878973216434787E+02,  2.062264289071151E+08, -1.170277737667452E+00,
2458377.500000000, A.D. 2018-Sep-16 00:00:00.0000,  1.885165582769932E+08, -8.343450142025235E+07, -6.417400696726743E+06,  1.107815930377863E+01,  2.551193770170889E+01,  2.430071168979175E-01,  6.879915472939912E+02,  2.062546770464889E+08, -2.022684433279897E-01,
2458378.500000000, A.D. 2018-Sep-17 00:00:00.0000,  1.894212189015891E+08, -8.135945499883856E+07, -6.388857714302331E+06,  1.180096729138552E+01,  2.441726857229060E+01, -3.057980224031116E-01,  6.879881897843038E+02,  2.062536704904069E+08,  1.215646947802112E+00,
2458379.500000000, A.D. 2018-Sep-18 00:00:00.0000,  1.903029161419047E+08, -7.924078122927889E+07, -6.355685421792224E+06,  1.071319107864457E+01,  2.313752132947621E+01, -3.472294724561742E-02,  6.879406364807251E+02,  2.062394143686410E+08,  9.965938196320000E-01,
2458380.500000000, A.D. 2018-Sep-19 00:00:00.0000,  1.911931364788290E+08, -7.710105023049338E+07, -6.334520187127814E+06,  9.056566422106940E+00,  2.371810511038882E+01,  6.682331189969855E-01,  6.879795935405565E+02,  2.062510934013643E+08, -4.914902899518951E-01,
2458381.500000000, A.D. 2018-Sep-20 00:00:00.0000,  1.920792329630542E+08, -7.498060933348544E+07, -6.323211417602487E+06,  8.911629991694399E+00,  2.545452780689318E+01,  7.772223809767382E-01,  6.881169912058043E+02,  2.062922841851524E+08, -9.780855073285430E-01,
2458382.500000000, A.D. 2018-Sep-21 00:00:00.0000,  1.929229445113520E+08, -7.287838791286221E+07, -6.303999705012042E+06,  1.012579855764403E+01,  2.592907701303098E+01,  1.428894374717640E-01,  6.882281946898715E+02,  2.063256221509791E+08,  3.049973380117425E-01,
2458383.500000000, A.D. 2018-Sep-22 00:00:00.0000,  1.937167999891298E+08, -7.075375825249350E+07, -6.269759527662966E+06,  1.053537864479661E+01,  2.458574186794809E+01, -2.851598898106538E-01,  6.882390299157377E+02,  2.063288704699745E+08,  1.469179201177123E+00,
2458384.500000000, A.D. 2018-Sep-23 00:00:00.0000,  1.944949697295615E+08, -6.858697757976925E+07, -6.234511629332419E+06,  9.166088766497323E+00,  2.354784837721660E+01,  1.365754096087954E-01,  6.882368723914839E+02,  2.063282236604753E+08,  8.085705607268389E-01,
2458385.500000000, A.D. 2018-Sep-24 00:00:00.0000,  1.952827152777021E+08, -6.640862600649796E+07, -6.212734194128659E+06,  7.666808458349866E+00,  2.448381350829433E+01,  7.977327591208319E-01,  6.883395771121728E+02,  2.063590137611388E+08, -6.478870991778792E-01,
2458386.500000000, A.D. 2018-Sep-25 00:00:00.0000,  1.960589180914928E+08, -6.425485010109643E+07, -6.197973103942282E+06,  7.878657225337686E+00,  2.614334956229605E+01,  7.336268798496821E-01,  6.885186331031467E+02,  2.064126933967925E+08, -6.768139740977601E-01,
2458387.500000000, A.D. 2018-Sep-26 00:00:00.0000,  1.967871656691568E+08, -6.211432841250759E+07, -6.172386523433190E+06,  9.113926135878808E+00,  2.620173311086997E+01,  5.065325759134254E-02,  6.886420584266652E+02,  2.064496953779096E+08,  8.025586338811014E-01,
2458388.500000000, A.D. 2018-Sep-27 00:00:00.0000,  1.974694163549148E+08, -5.994531940747503E+07, -6.133098396719955E+06,  9.171073675600708E+00,  2.469679657850190E+01, -2.302361904669397E-01,  6.886723515381887E+02,  2.064587770242736E+08,  1.607881596628137E+00,
2458389.500000000, A.D. 2018-Sep-28 00:00:00.0000,  1.981429783457293E+08, -5.773774053817013E+07, -6.096448392384470E+06,  7.589492490021970E+00,  2.396946846141252E+01,  3.168078887661814E-01,  6.887226497621086E+02,  2.064738560524557E+08,  5.711633160398085E-01,
2458390.500000000, A.D. 2018-Sep-29 00:00:00.0000,  1.988253279105205E+08, -5.552833061952181E+07, -6.073868257834196E+06,  6.324667498448740E+00,  2.520896607968768E+01,  8.962741240091177E-01,  6.888869709596569E+02,  2.065231183081701E+08, -7.154238513714061E-01,
2458391.500000000, A.D. 2018-Sep-30 00:00:00.0000,  1.994881667524455E+08, -5.334684563981420E+07, -6.054999149698388E+06,  6.865860908575353E+00,  2.669548211264918E+01,  6.634817413852936E-01,  6.890991617017331E+02,  2.065867314923020E+08, -2.830730641432677E-01,
2458392.500000000, A.D. 2018-Oct-01 00:00:00.0000,  2.000991418625188E+08, -5.117240936599803E+07, -6.023001101972044E+06,  8.031932052950449E+00,  2.633912290070695E+01, -2.586487895715450E-02,  6.892322033670231E+02,  2.066266163801557E+08,  1.255898783117845E+00,
2458393.500000000, A.D. 2018-Oct-02 00:00:00.0000,  2.006695189316789E+08, -4.896474270365594E+07, -5.979423996237401E+06,  7.718432658366684E+00,  2.476895626982914E+01, -1.420423490921028E-01,  6.892886766324689E+02,  2.066435466392150E+08,  1.630333657065784E+00,
2458394.500000000, A.D. 2018-Oct-03 00:00:00.0000,  2.012374656177999E+08, -4.672403772986983E+07, -5.941929361370360E+06,  6.006164357287061E+00,  2.440088293843782E+01,  4.974401757658633E-01,  6.893968553002109E+02,  2.066759777879205E+08,  3.174135891502254E-01,
2458395.500000000, A.D. 2018-Oct-04 00:00:00.0000,  2.018115977185400E+08, -4.449097975321231E+07, -5.918205843266891E+06,  5.038552515539212E+00,  2.587248488372516E+01,  9.601875282130266E-01,  6.896182018146852E+02,  2.067423358035645E+08, -6.768640524136921E-01,
2458396.500000000, A.D. 2018-Oct-05 00:00:00.0000,  2.023581705899523E+08, -4.228711906761167E+07, -5.894626366226718E+06,  5.861358174135407E+00,  2.709955530279440E+01,  5.733634061359965E-01,  6.898551968141541E+02,  2.068133851169890E+08,  1.777052894805689E-01,
2458397.500000000, A.D. 2018-Oct-06 00:00:00.0000,  2.028508513570079E+08, -4.008331484974550E+07, -5.856375123693403E+06,  6.872238539714761E+00,  2.635440401401294E+01, -7.986345092512792E-02,  6.899976061497010E+02,  2.068560783617348E+08,  1.634640266526212E+00,
2458398.500000000, A.D. 2018-Oct-07 00:00:00.0000,  2.033095304987601E+08, -3.784322531189854E+07, -5.809336600481642E+06,  6.192335709087870E+00,  2.481890601242763E+01, -2.382592149964857E-02,  6.900877907744631E+02,  2.068831150320660E+08,  1.546147573379579E+00,
2458399.500000000, A.D. 2018-Oct-08 00:00:00.0000,  2.037708923417684E+08, -3.557730829244767E+07, -5.771411312994476E+06,  4.438497972243166E+00,  2.483622485103920E+01,  6.697222016902167E-01,  6.902571238984062E+02,  2.069338798255138E+08,  8.198474719583898E-02,
2458400.500000000, A.D. 2018-Oct-09 00:00:00.0000,  2.042341657480755E+08, -3.332774875081114E+07, -5.746080317217520E+06,  3.812360682927019E+00,  2.645338733231714E+01,  9.878963933262419E-01,  6.905288436920943E+02,  2.070153393703508E+08, -5.250532417681419E-01,
2458401.500000000, A.D. 2018-Oct-10 00:00:00.0000,  2.046622227438510E+08, -3.110657133637338E+07, -5.717281727736386E+06,  4.851539935948535E+00,  2.734939998880220E+01,  4.711104223570572E-01,  6.907832275582705E+02,  2.070916017348672E+08,  6.735541812661034E-01,
2458402.500000000, A.D. 2018-Oct-11 00:00:00.0000,  2.050363488645350E+08, -2.887817535644133E+07, -5.673125342565669E+06,  5.630753225232295E+00,  2.626415410954629E+01, -1.058471086642960E-01,  6.909370830461133E+02,  2.071377264497444E+08,  1.914903312920126E+00,
